     2.10           N:  GPS NAV DATA                        RINEX VERSION / TYPE
Pinnacle 1.00                           16-NOV-08 16:01     PGM / RUN BY / DATE
build April 19, 2002                                        COMMENT
                                                            END OF HEADER       
 3 08 11 15  0  0  0.0  .311174429953D-03  .522959453519D-11  .000000000000D+00
     .720000000000D+02 -.784375000000D+01  .592524681031D-08 -.643948425597D+00
    -.227242708206D-06  .114513365552D-01  .475347042084D-05  .515369751358D+04
     .518400000000D+06  .242143869400D-07  .195430523277D+01  .203028321266D-06
     .925601882668D+00  .268937500000D+03  .874528745621D+00 -.875750764249D-08
    -.553594488004D-10  .000000000000D+00  .150500000000D+04  .000000000000D+00
     .200000000000D+01  .000000000000D+00 -.419095158577D-08  .720000000000D+02
     .518399000000D+06                                                          
 3 08 11 15  1 59 44.0  .311212148517D-03  .522959453519D-11  .000000000000D+00
     .750000000000D+02  .218750000000D+00  .587631620073D-08  .403897794204D+00
     .819563865662D-07  .114524959354D-01  .483542680740D-05  .515369971848D+04
     .525584000000D+06 -.782310962677D-07  .195424219856D+01  .135973095894D-06
     .925601420386D+00  .268125000000D+03  .874524652376D+00 -.877786563334D-08
    -.792890169915D-10  .000000000000D+00  .150500000000D+04  .000000000000D+00
     .200000000000D+01  .000000000000D+00 -.419095158577D-08  .750000000000D+02
     .525599000000D+06                                                          
 3 08 11 15  2  0  0.0  .311212614179D-03  .522959453519D-11  .000000000000D+00
     .740000000000D+02  .218750000000D+00  .587631620073D-08  .406231604971D+00
     .819563865662D-07  .114524868550D-01  .483542680740D-05  .515369972801D+04
     .525600000000D+06 -.782310962677D-07  .195424202008D+01  .135973095894D-06
     .925601395516D+00  .268156250000D+03  .874524472437D+00 -.877786563334D-08
    -.792890169915D-10  .000000000000D+00  .150500000000D+04  .000000000000D+00
     .400000000000D+01  .000000000000D+00 -.419095158577D-08  .740000000000D+02
     .525599000000D+06                                                          
 3 08 11 15  3 59 44.0  .311249867082D-03  .522959453519D-11  .000000000000D+00
     .770000000000D+02 -.134375000000D+01  .585845831402D-08  .145401722485D+01
    -.121071934700D-06  .114530703286D-01  .528246164322D-05  .515370133972D+04
     .532784000000D+06 -.244006514549D-06  .195417873132D+01  .856816768646D-07
     .925601007843D+00  .262281250000D+03  .874579586413D+00 -.871179145251D-08
    -.175007289756D-10  .000000000000D+00  .150500000000D+04  .000000000000D+00
     .200000000000D+01  .000000000000D+00 -.419095158577D-08  .770000000000D+02
     .532799000000D+06                                                          
 6 08 11 15  0  0  0.0  .143309123814D-03 -.704858393874D-11  .000000000000D+00
     .730000000000D+02 -.147500000000D+02  .563773483429D-08  .192689032352D+01
    -.890344381332D-06  .561395462137D-02  .474043190479D-05  .515370025063D+04
     .518400000000D+06  .763684511185D-07  .202034328007D+01 -.949949026108D-07
     .933166782736D+00  .272187500000D+03 -.152958388227D+01 -.840106422376D-08
    -.149291932894D-09  .000000000000D+00  .150500000000D+04  .000000000000D+00
     .200000000000D+01  .000000000000D+00 -.465661287308D-08  .730000000000D+02
     .518399000000D+06                                                          
 6 08 11 15  2  0  0.0  .143258366734D-03 -.704858393874D-11  .000000000000D+00
     .740000000000D+02 -.590625000000D+01  .562773441773D-08  .297691511068D+01
    -.355765223503D-06  .561296311207D-02  .483542680740D-05  .515370267868D+04
     .525600000000D+06  .165775418282D-06  .202028252947D+01 -.335276126862D-07
     .933165751379D+00  .269781250000D+03 -.152943657520D+01 -.841963642594D-08
    -.953611150304D-10  .000000000000D+00  .150500000000D+04  .000000000000D+00
     .200000000000D+01  .000000000000D+00 -.465661287308D-08  .740000000000D+02
     .525599000000D+06                                                          
 6 08 11 15  3 59 44.0  .143209006637D-03 -.704858393874D-11  .000000000000D+00
     .000000000000D+00 -.325000000000D+01  .557916096588D-08 -.225847219301D+01
    -.111758708954D-06  .561312667560D-02  .478886067867D-05  .515370226288D+04
     .532784000000D+06  .558793544769D-07  .202022161649D+01  .745058059692D-07
     .933165663604D+00  .269312500000D+03 -.152939698132D+01 -.838034907518D-08
     .153577825704D-10  .000000000000D+00  .150500000000D+04  .000000000000D+00
     .200000000000D+01  .000000000000D+00 -.465661287308D-08  .000000000000D+00
     .532799000000D+06                                                          
 6 08 11 15  4  0  0.0  .143207609653D-03 -.704858393874D-11  .000000000000D+00
     .800000000000D+02 -.325000000000D+01  .557916096588D-08 -.225613731432D+01
    -.111758708954D-06  .561311980709D-02  .478886067867D-05  .515370226097D+04
     .532800000000D+06  .558793544769D-07  .202022146288D+01  .745058059692D-07
     .933165660678D+00  .269312500000D+03 -.152939814873D+01 -.838034907518D-08
     .153577825704D-10  .000000000000D+00  .150500000000D+04  .000000000000D+00
     .200000000000D+01  .000000000000D+00 -.465661287308D-08  .800000000000D+02
     .532799000000D+06                                                          
 7 08 11 15  2  0  0.0  .231978483498D-04  .227373675443D-12  .000000000000D+00
     .470000000000D+02 -.165562500000D+03  .403802534282D-08 -.998431831436D+00
    -.865943729877D-05  .230859732255D-02  .932253897190D-05  .515369603348D+04
     .525600000000D+06 -.465661287308D-07 -.306386438111D-01 -.596046447754D-07
     .965144428151D+00  .201812500000D+03  .283797435492D+01 -.781103964687D-08
    -.939324840936D-10  .000000000000D+00  .150500000000D+04  .000000000000D+00
     .200000000000D+01  .000000000000D+00 -.107102096081D-07  .470000000000D+02
     .525599000000D+06                                                          
 7 08 11 15  4  0  0.0  .231997109950D-04  .227373675443D-12  .000000000000D+00
     .480000000000D+02 -.145843750000D+03  .418767443345D-08  .509657427678D-01
    -.777468085289D-05  .230641826056D-02  .889971852303D-05  .515369083023D+04
     .532800000000D+06  .335276126862D-07 -.306947481823D-01 -.372529029846D-08
     .965143276834D+00  .210218750000D+03  .283874324126D+01 -.787782814316D-08
    -.154292141173D-09  .000000000000D+00  .150500000000D+04  .000000000000D+00
     .200000000000D+01  .000000000000D+00 -.107102096081D-07  .480000000000D+02
     .532799000000D+06                                                          
 8 08 11 15  2  0  0.0 -.178008805960D-03 -.136424205266D-11  .000000000000D+00
     .163000000000D+03 -.162187500000D+03  .355193366658D-08 -.170828485402D+01
    -.859610736370D-05  .106102054706D-01  .103712081909D-04  .515371953773D+04
     .525600000000D+06 -.577419996262D-07  .256806403532D-01 -.121071934700D-06
     .986334145530D+00  .191875000000D+03  .294196041235D+01 -.760067374143D-08
     .642883921553D-10  .000000000000D+00  .150500000000D+04  .000000000000D+00
     .400000000000D+01  .000000000000D+00 -.372529029846D-08  .163000000000D+03
     .525599000000D+06                                                          
 8 08 11 15  3 59 44.0 -.178012065589D-03 -.136424205266D-11  .000000000000D+00
     .300000000000D+02 -.142531250000D+03  .368301055503D-08 -.660787412905D+00
    -.764615833759D-05  .106080940459D-01  .916980206966D-05  .515371213722D+04
     .532784000000D+06  .838190317154D-07  .256264641079D-01 -.199303030968D-06
     .986334269879D+00  .214218750000D+03  .294227661331D+01 -.764710424687D-08
    -.400016662300D-10  .000000000000D+00  .150500000000D+04  .000000000000D+00
     .200000000000D+01  .000000000000D+00 -.372529029846D-08  .300000000000D+02
     .532799000000D+06                                                          
 8 08 11 15  4  0  0.0 -.178019050509D-03 -.136424205266D-11  .000000000000D+00
     .164000000000D+03 -.142531250000D+03  .368301055503D-08 -.658452550300D+00
    -.764615833759D-05  .106080916012D-01  .916980206966D-05  .515371214294D+04
     .532800000000D+06  .838190317154D-07  .256263485374D-01 -.199303030968D-06
     .986334252324D+00  .214218750000D+03  .294227542835D+01 -.764710424687D-08
    -.400016662300D-10  .000000000000D+00  .150500000000D+04  .000000000000D+00
     .400000000000D+01  .000000000000D+00 -.372529029846D-08  .164000000000D+03
     .532799000000D+06                                                          
11 08 11 15  2  0  0.0  .155917368829D-04 -.909494701773D-12  .000000000000D+00
     .800000000000D+02  .846875000000D+01  .607953895149D-08 -.121260095797D+01
     .376254320145D-06  .887318281457D-02  .951439142227D-05  .515365346527D+04
     .525600000000D+06  .260770320892D-06  .290950061693D+01  .372529029846D-08
     .890613981944D+00  .155562500000D+03  .646173873633D+00 -.854642742158D-08
    -.602525097589D-09  .000000000000D+00  .150500000000D+04  .000000000000D+00
     .200000000000D+01  .000000000000D+00 -.121071934700D-07  .800000000000D+02
     .525599000000D+06                                                          
11 08 11 15  3 59 44.0  .155875459313D-04 -.909494701773D-12  .000000000000D+00
     .280000000000D+02  .312500000000D+01  .617025701597D-08 -.164622224125D+00
     .193715095520D-06  .887386151589D-02  .926293432713D-05  .515365563011D+04
     .532784000000D+06  .298023223877D-07  .290943838439D+01  .132247805595D-06
     .890608427244D+00  .163218750000D+03  .646065000343D+00 -.880572393660D-08
    -.633240662730D-09  .000000000000D+00  .150500000000D+04  .000000000000D+00
     .200000000000D+01  .000000000000D+00 -.121071934700D-07  .280000000000D+02
     .532799000000D+06                                                          
